STARLINK-36872          
1 67955U 26037Z   26167.24626410  .00013563  00000+0  50136-3 0  9992
2 67955  43.0066 354.1195 0003241 264.2805  95.7677 15.27586983 18417
STARLINK-36918          
1 67956U 26037AA  26167.24241804  .00019080  00000+0  70021-3 0  9998
2 67956  43.0045 354.0952 0002760 269.0966  90.9570 15.27619566 18414
STARLINK-36829          
1 67957U 26037AB  26167.77321639  .00014729  00000+0  54344-3 0  9997
2 67957  43.0046 351.2067 0001686 264.7949  95.2710 15.27595840 18480
STARLINK-36799          
1 67958U 26037AC  26167.23856027  .00016839  00000+0  61960-3 0  9999
2 67958  43.0041 354.0570 0002022 269.0202  91.0418 15.27603448 18417
STARLINK-36834          
1 67959U 26037AD  26167.81676564  .00015185  00000+0  56022-3 0  9996
2 67959  43.0045 350.6677 0000757 270.6672  89.4093 15.27578178 18505
STARLINK-36841          
1 67960U 26037AE  26167.23213503  .00013821  00000+0  51053-3 0  9998
2 67960  43.0042 354.0184 0002322 265.1655  94.8931 15.27597999 18418
STARLINK-36912          
1 67961U 26038A   26167.60493748  .00011258  00000+0  35055-3 0  9998
2 67961  97.2835 177.2455 0001491 101.4486 258.6924 15.33443544 18398
STARLINK-36881          
1 67962U 26038B   26167.60221578  .00015045  00000+0  46715-3 0  9992
2 67962  97.2835 177.2493 0001357  93.9443 266.1955 15.33463789 18391
STARLINK-36357          
1 67963U 26038C   26167.72729353  .00019544  00000+0  60613-3 0  9991
2 67963  97.2830 177.3865 0001733  86.1521 273.9920 15.33445536 18411
STARLINK-36349          
1 67964U 26038D   26167.59949779  .00016985  00000+0  52709-3 0  9996
2 67964  97.2831 177.2525 0001523  93.7504 266.3913 15.33454612 18397
STARLINK-36806          
1 67965U 26038E   26167.72457368  .00013510  00000+0  41998-3 0  9999
2 67965  97.2833 177.3901 0001610  90.5048 269.6379 15.33449231 18410
STARLINK-36820          
1 67966U 26038F   26167.72185451  .00016449  00000+0  51069-3 0  9995
2 67966  97.2828 177.3943 0001735  89.3348 270.8094 15.33446985 18419
STARLINK-36819          
1 67967U 26038G   26167.78439163  .00014021  00000+0  43577-3 0  9993
2 67967  97.2832 177.4594 0001757  92.4774 267.6670 15.33448699 18429
STARLINK-36812          
1 67968U 26038H   26167.58590491  .00009589  00000+0  29898-3 0  9997
2 67968  97.2833 177.2722 0001160 123.0780 237.0574 15.33444235 18390
STARLINK-36709          
1 67969U 26038J   26167.77623481  .00019068  00000+0  59129-3 0  9998
2 67969  97.2834 177.4741 0001999  90.6570 269.4902 15.33452949 18420
STARLINK-36319          
1 67970U 26038K   26167.77895321  .00015918  00000+0  49421-3 0  9998
2 67970  97.2837 177.4687 0001617  86.5695 273.5733 15.33452940 18422
STARLINK-36710          
1 67971U 26038L   26167.77352212  .00011500  00000+0  35826-3 0  9993
2 67971  97.2831 177.4764 0001734  95.4590 264.6850 15.33420641 18420
STARLINK-36894          
1 67972U 26038M   26167.57502847  .00012771  00000+0  39716-3 0  9996
2 67972  97.2825 177.2857 0001152  89.2122 270.9253 15.33450844 18392
STARLINK-36900          
1 67973U 26038N   26167.76534995  .00013803  00000+0  42881-3 0  9991
2 67973  97.2833 177.4848 0001540  95.8565 264.2854 15.33465010 18427
STARLINK-36901          
1 67974U 26038P   26167.76807940  .00011609  00000+0  36131-3 0  9998
2 67974  97.2831 177.4857 0002356  90.2342 269.9171 15.33447006 18423
STARLINK-36883          
1 67975U 26038Q   26167.81972704  .00014656  00000+0  45513-3 0  9995
2 67975  97.2837 177.5659 0001646  94.7577 265.3854 15.33465765 18432
STARLINK-36880          
1 67976U 26038R   26167.56686948  .00009389  00000+0  29271-3 0  9990
2 67976  97.2830 177.2948 0001628  91.6260 268.5170 15.33452314 18396
STARLINK-36904          
1 67977U 26038S   26167.75720164  .00017713  00000+0  54953-3 0  9996
2 67977  97.2834 177.4987 0001981  93.6168 266.5301 15.33453379 18427
STARLINK-36364          
1 67978U 26038T   26167.74905806  .00015158  00000+0  47081-3 0  9999
2 67978  97.2837 177.5098 0001212 100.8174 259.3205 15.33451740 18423
STARLINK-36359          
1 67979U 26038U   26167.75992012  .00010590  00000+0  32987-3 0  9990
2 67979  97.2840 177.4954 0001847  95.2377 264.9077 15.33447062 18425
STARLINK-36882          
1 67980U 26038V   26167.75176137  .00003008  00000+0  95454-4 0  9999
2 67980  97.2835 177.5053 0001688  97.4621 262.6813 15.33443230 18427
STARLINK-36874          
1 67981U 26038W   26167.74632441  .00006409  00000+0  20068-3 0  9990
2 67981  97.2834 177.5135 0001540  94.3459 265.7959 15.33443798 18424
STARLINK-36879          
1 67982U 26038X   26167.74360213  .00008632  00000+0  26939-3 0  9999
2 67982  97.2813 177.5148 0001013  94.8930 265.2429 15.33444946 18423
STARLINK-36867          
1 67983U 26038Y   26167.60765611  .00006449  00000+0  20192-3 0  9995
2 67983  97.2838 177.3929 0001411  97.6150 262.5253 15.33442175 18408
STARLINK-36266          
1 67984U 26038Z   26167.74088162  .00006517  00000+0  20402-3 0  9990
2 67984  97.2835 177.5212 0001801  99.5148 260.6299 15.33440506 18421
