OBJECT_NAME,OBJECT_ID,EPOCH,MEAN_MOTION,ECCENTRICITY,INCLINATION,RA_OF_ASC_NODE,ARG_OF_PERICENTER,MEAN_ANOMALY,EPHEMERIS_TYPE,CLASSIFICATION_TYPE,NORAD_CAT_ID,ELEMENT_SET_NO,REV_AT_EPOCH,BSTAR,MEAN_MOTION_DOT,MEAN_MOTION_DDOT
STARLINK-36872,2026-037Z,2026-06-16T05:54:37.218240,15.27586983,.0003241,43.0066,354.1195,264.2805,95.7677,0,U,67955,999,1841,.50136E-3,.13563E-3,0
STARLINK-36918,2026-037AA,2026-06-16T05:49:04.918656,15.27619566,.000276,43.0045,354.0952,269.0966,90.9570,0,U,67956,999,1841,.70021E-3,.1908E-3,0
STARLINK-36829,2026-037AB,2026-06-16T18:33:25.896096,15.27595840,.0001686,43.0046,351.2067,264.7949,95.2710,0,U,67957,999,1848,.54344E-3,.14729E-3,0
STARLINK-36799,2026-037AC,2026-06-16T05:43:31.607328,15.27603448,.0002022,43.0041,354.0570,269.0202,91.0418,0,U,67958,999,1841,.6196E-3,.16839E-3,0
STARLINK-36834,2026-037AD,2026-06-16T19:36:08.551296,15.27578178,.0000757,43.0045,350.6677,270.6672,89.4093,0,U,67959,999,1850,.56022E-3,.15185E-3,0
STARLINK-36841,2026-037AE,2026-06-16T05:34:16.466592,15.27597999,.0002322,43.0042,354.0184,265.1655,94.8931,0,U,67960,999,1841,.51053E-3,.13821E-3,0
STARLINK-36912,2026-038A,2026-06-16T14:31:06.598272,15.33443544,.0001491,97.2835,177.2455,101.4486,258.6924,0,U,67961,999,1839,.35055E-3,.11258E-3,0
STARLINK-36881,2026-038B,2026-06-16T14:27:11.443392,15.33463789,.0001357,97.2835,177.2493,93.9443,266.1955,0,U,67962,999,1839,.46715E-3,.15045E-3,0
STARLINK-36357,2026-038C,2026-06-16T17:27:18.160992,15.33445536,.0001733,97.2830,177.3865,86.1521,273.9920,0,U,67963,999,1841,.60613E-3,.19544E-3,0
STARLINK-36349,2026-038D,2026-06-16T14:23:16.609056,15.33454612,.0001523,97.2831,177.2525,93.7504,266.3913,0,U,67964,999,1839,.52709E-3,.16985E-3,0
STARLINK-36806,2026-038E,2026-06-16T17:23:23.165952,15.33449231,.000161,97.2833,177.3901,90.5048,269.6379,0,U,67965,999,1841,.41998E-3,.1351E-3,0
STARLINK-36820,2026-038F,2026-06-16T17:19:28.229664,15.33446985,.0001735,97.2828,177.3943,89.3348,270.8094,0,U,67966,999,1841,.51069E-3,.16449E-3,0
STARLINK-36819,2026-038G,2026-06-16T18:49:31.436832,15.33448699,.0001757,97.2832,177.4594,92.4774,267.6670,0,U,67967,999,1842,.43577E-3,.14021E-3,0
STARLINK-36812,2026-038H,2026-06-16T14:03:42.184224,15.33444235,.000116,97.2833,177.2722,123.0780,237.0574,0,U,67968,999,1839,.29898E-3,.9589E-4,0
STARLINK-36709,2026-038J,2026-06-16T18:37:46.687584,15.33452949,.0001999,97.2834,177.4741,90.6570,269.4902,0,U,67969,999,1842,.59129E-3,.19068E-3,0
STARLINK-36319,2026-038K,2026-06-16T18:41:41.557344,15.33452940,.0001617,97.2837,177.4687,86.5695,273.5733,0,U,67970,999,1842,.49421E-3,.15918E-3,0
STARLINK-36710,2026-038L,2026-06-16T18:33:52.311168,15.33420641,.0001734,97.2831,177.4764,95.4590,264.6850,0,U,67971,999,1842,.35826E-3,.115E-3,0
STARLINK-36894,2026-038M,2026-06-16T13:48:02.459808,15.33450844,.0001152,97.2825,177.2857,89.2122,270.9253,0,U,67972,999,1839,.39716E-3,.12771E-3,0
STARLINK-36900,2026-038N,2026-06-16T18:22:06.235680,15.33465010,.000154,97.2833,177.4848,95.8565,264.2854,0,U,67973,999,1842,.42881E-3,.13803E-3,0
STARLINK-36901,2026-038P,2026-06-16T18:26:02.060160,15.33447006,.0002356,97.2831,177.4857,90.2342,269.9171,0,U,67974,999,1842,.36131E-3,.11609E-3,0
STARLINK-36883,2026-038Q,2026-06-16T19:40:24.416256,15.33465765,.0001646,97.2837,177.5659,94.7577,265.3854,0,U,67975,999,1843,.45513E-3,.14656E-3,0
STARLINK-36880,2026-038R,2026-06-16T13:36:17.523072,15.33452314,.0001628,97.2830,177.2948,91.6260,268.5170,0,U,67976,999,1839,.29271E-3,.9389E-4,0
STARLINK-36904,2026-038S,2026-06-16T18:10:22.221696,15.33453379,.0001981,97.2834,177.4987,93.6168,266.5301,0,U,67977,999,1842,.54953E-3,.17713E-3,0
STARLINK-36364,2026-038T,2026-06-16T17:58:38.616384,15.33451740,.0001212,97.2837,177.5098,100.8174,259.3205,0,U,67978,999,1842,.47081E-3,.15158E-3,0
STARLINK-36359,2026-038U,2026-06-16T18:14:17.098368,15.33447062,.0001847,97.2840,177.4954,95.2377,264.9077,0,U,67979,999,1842,.32987E-3,.1059E-3,0
STARLINK-36882,2026-038V,2026-06-16T18:02:32.182368,15.33443230,.0001688,97.2835,177.5053,97.4621,262.6813,0,U,67980,999,1842,.95454E-4,.3008E-4,0
STARLINK-36874,2026-038W,2026-06-16T17:54:42.429024,15.33443798,.000154,97.2834,177.5135,94.3459,265.7959,0,U,67981,999,1842,.20068E-3,.6409E-4,0
STARLINK-36879,2026-038X,2026-06-16T17:50:47.224032,15.33444946,.0001013,97.2813,177.5148,94.8930,265.2429,0,U,67982,999,1842,.26939E-3,.8632E-4,0
STARLINK-36867,2026-038Y,2026-06-16T14:35:01.487904,15.33442175,.0001411,97.2838,177.3929,97.6150,262.5253,0,U,67983,999,1840,.20192E-3,.6449E-4,0
STARLINK-36266,2026-038Z,2026-06-16T17:46:52.171968,15.33440506,.0001801,97.2835,177.5212,99.5148,260.6299,0,U,67984,999,1842,.20402E-3,.6517E-4,0
